GLOBALSTAR M045         
1 25676U 99019A   26064.57249270 -.00000044  00000+0  43605-3 0  9997
2 25676  51.9962 280.2599 0001020  71.1196 321.6134 12.27074067225480
GLOBALSTAR M019         
1 25677U 99019B   26064.47330336 -.00000148  00000+0 -60157-3 0  9998
2 25677  51.9882  69.2931 0001663 127.7948   7.0623 12.13886760216870
GLOBALSTAR M044         
1 25678U 99019C   26064.37134028 -.00000083  00000+0  25776-5 0  9995
2 25678  51.9978  53.6085 0006153 181.0812 327.6203 11.90262552202428
GLOBALSTAR M042         
1 25679U 99019D   26064.64904618 -.00000106  00000+0 -12903-3 0  9999
2 25679  52.0036  32.8291 0003089 113.4089  57.0618 12.22094507217221
GLOBALSTAR M025         
1 25770U 99031A   26064.32325809 -.00000064  00000+0  10300-3 0  9990
2 25770  51.9804 274.3317 0001743 188.3162 341.7552 11.22560612511034
GLOBALSTAR M049         
1 25771U 99031B   26064.45423714 -.00000106  00000+0 -14084-2 0  9999
2 25771  51.9906 321.9194 0003388  94.1756 265.9428 11.12121851146490
GLOBALSTAR M047         
1 25772U 99031C   26064.36276319 -.00000055  00000+0  41128-3 0  9999
2 25772  51.9832 294.1451 0016431 354.7497   5.3135 11.31932533500680
GLOBALSTAR M052         
1 25773U 99031D   26064.47826276 -.00000025  00000+0  13635-2 0  9993
2 25773  51.9866  66.8598 0002535 241.4184 289.9976 11.15064105507659
GLOBALSTAR M035         
1 25851U 99037A   26064.65077615 -.00000104  00000+0 -15063-2 0  9997
2 25851  51.9929 191.8715 0013908  49.8616 323.1051 11.04541398125150
GLOBALSTAR M032         
1 25852U 99037B   26064.51295815 -.00000006  00000+0  19455-2 0  9996
2 25852  52.0001 359.3499 0012349 247.5240 112.4253 11.19068436164049
GLOBALSTAR M051         
1 25853U 99037C   26064.54272093 -.00000048  00000+0  57762-3 0  9993
2 25853  51.9783 130.4036 0000710 133.9292 226.1577 11.42200301162252
GLOBALSTAR M030         
1 25854U 99037D   26064.59079872 -.00000089  00000+0 -28943-3 0  9994
2 25854  51.9869 279.7704 0004204 134.2253 225.8909 11.55103991180256
GLOBALSTAR M048         
1 25872U 99041A   26064.44016565 -.00000061  00000+0  24314-3 0  9990
2 25872  51.9367  75.7809 0013198 276.4610 254.8132 11.33862694154616
GLOBALSTAR M026         
1 25873U 99041B   26064.08243931  .00000033  00000+0  35618-2 0  9996
2 25873  52.0026 308.3513 0002114   1.1675 171.4275 11.06842262177377
GLOBALSTAR M043         
1 25874U 99041C   26064.67217990 -.00000075  00000+0 -19969-3 0  9998
2 25874  51.9384 193.2922 0013516  41.3195 331.3766 11.25697779152321
GLOBALSTAR M028         
1 25875U 99041D   26064.58339288 -.00000046  00000+0  35138-3 0  9997
2 25875  51.9620 133.6178 0062919 278.9576  80.4166 12.50596952222883
