[{"OBJECT_NAME":"GLOBALSTAR M045","OBJECT_ID":"1999-019A","EPOCH":"2026-03-05T13:44:23.369280","MEAN_MOTION":12.27074067,"ECCENTRICITY":0.00010207,"INCLINATION":51.9962,"RA_OF_ASC_NODE":280.2599,"ARG_OF_PERICENTER":71.1196,"MEAN_ANOMALY":321.6134,"EPHEMERIS_TYPE":0,"CLASSIFICATION_TYPE":"U","NORAD_CAT_ID":25676,"ELEMENT_SET_NO":999,"REV_AT_EPOCH":22548,"BSTAR":0.00043604728,"MEAN_MOTION_DOT":-4.4e-7,"MEAN_MOTION_DDOT":0},{"OBJECT_NAME":"GLOBALSTAR M019","OBJECT_ID":"1999-019B","EPOCH":"2026-03-05T11:21:33.410304","MEAN_MOTION":12.1388676,"ECCENTRICITY":0.00016635,"INCLINATION":51.9882,"RA_OF_ASC_NODE":69.2931,"ARG_OF_PERICENTER":127.7948,"MEAN_ANOMALY":7.0623,"EPHEMERIS_TYPE":0,"CLASSIFICATION_TYPE":"U","NORAD_CAT_ID":25677,"ELEMENT_SET_NO":999,"REV_AT_EPOCH":21687,"BSTAR":-0.00060156762,"MEAN_MOTION_DOT":-1.48e-6,"MEAN_MOTION_DDOT":0},{"OBJECT_NAME":"GLOBALSTAR M044","OBJECT_ID":"1999-019C","EPOCH":"2026-03-05T08:54:43.800192","MEAN_MOTION":11.90262552,"ECCENTRICITY":0.00061535,"INCLINATION":51.9978,"RA_OF_ASC_NODE":53.6085,"ARG_OF_PERICENTER":181.0812,"MEAN_ANOMALY":327.6203,"EPHEMERIS_TYPE":0,"CLASSIFICATION_TYPE":"U","NORAD_CAT_ID":25678,"ELEMENT_SET_NO":999,"REV_AT_EPOCH":20242,"BSTAR":2.57758e-6,"MEAN_MOTION_DOT":-8.3e-7,"MEAN_MOTION_DDOT":0},{"OBJECT_NAME":"GLOBALSTAR M042","OBJECT_ID":"1999-019D","EPOCH":"2026-03-05T15:34:37.589952","MEAN_MOTION":12.22094507,"ECCENTRICITY":0.00030896,"INCLINATION":52.0036,"RA_OF_ASC_NODE":32.8291,"ARG_OF_PERICENTER":113.4089,"MEAN_ANOMALY":57.0618,"EPHEMERIS_TYPE":0,"CLASSIFICATION_TYPE":"U","NORAD_CAT_ID":25679,"ELEMENT_SET_NO":999,"REV_AT_EPOCH":21722,"BSTAR":-0.0001290305,"MEAN_MOTION_DOT":-1.06e-6,"MEAN_MOTION_DDOT":0},{"OBJECT_NAME":"GLOBALSTAR M025","OBJECT_ID":"1999-031A","EPOCH":"2026-03-05T07:45:29.498976","MEAN_MOTION":11.22560612,"ECCENTRICITY":0.00017437,"INCLINATION":51.9804,"RA_OF_ASC_NODE":274.3317,"ARG_OF_PERICENTER":188.3162,"MEAN_ANOMALY":341.7552,"EPHEMERIS_TYPE":0,"CLASSIFICATION_TYPE":"U","NORAD_CAT_ID":25770,"ELEMENT_SET_NO":999,"REV_AT_EPOCH":51103,"BSTAR":0.00010299834,"MEAN_MOTION_DOT":-6.4e-7,"MEAN_MOTION_DDOT":0},{"OBJECT_NAME":"GLOBALSTAR M049","OBJECT_ID":"1999-031B","EPOCH":"2026-03-05T10:54:06.088896","MEAN_MOTION":11.12121851,"ECCENTRICITY":0.00033888,"INCLINATION":51.9906,"RA_OF_ASC_NODE":321.9194,"ARG_OF_PERICENTER":94.1756,"MEAN_ANOMALY":265.9428,"EPHEMERIS_TYPE":0,"CLASSIFICATION_TYPE":"U","NORAD_CAT_ID":25771,"ELEMENT_SET_NO":999,"REV_AT_EPOCH":14649,"BSTAR":-0.0014083785,"MEAN_MOTION_DOT":-1.06e-6,"MEAN_MOTION_DDOT":0},{"OBJECT_NAME":"GLOBALSTAR M047","OBJECT_ID":"1999-031C","EPOCH":"2026-03-05T08:42:22.739616","MEAN_MOTION":11.31932533,"ECCENTRICITY":0.00164314,"INCLINATION":51.9832,"RA_OF_ASC_NODE":294.1451,"ARG_OF_PERICENTER":354.7497,"MEAN_ANOMALY":5.3135,"EPHEMERIS_TYPE":0,"CLASSIFICATION_TYPE":"U","NORAD_CAT_ID":25772,"ELEMENT_SET_NO":999,"REV_AT_EPOCH":50068,"BSTAR":0.00041127581,"MEAN_MOTION_DOT":-5.5e-7,"MEAN_MOTION_DDOT":0},{"OBJECT_NAME":"GLOBALSTAR M052","OBJECT_ID":"1999-031D","EPOCH":"2026-03-05T11:28:41.902464","MEAN_MOTION":11.15064105,"ECCENTRICITY":0.00025359,"INCLINATION":51.9866,"RA_OF_ASC_NODE":66.8598,"ARG_OF_PERICENTER":241.4184,"MEAN_ANOMALY":289.9976,"EPHEMERIS_TYPE":0,"CLASSIFICATION_TYPE":"U","NORAD_CAT_ID":25773,"ELEMENT_SET_NO":999,"REV_AT_EPOCH":50765,"BSTAR":0.0013635384,"MEAN_MOTION_DOT":-2.5e-7,"MEAN_MOTION_DDOT":0},{"OBJECT_NAME":"GLOBALSTAR M035","OBJECT_ID":"1999-037A","EPOCH":"2026-03-05T15:37:07.059360","MEAN_MOTION":11.04541398,"ECCENTRICITY":0.00139087,"INCLINATION":51.9929,"RA_OF_ASC_NODE":191.8715,"ARG_OF_PERICENTER":49.8616,"MEAN_ANOMALY":323.1051,"EPHEMERIS_TYPE":0,"CLASSIFICATION_TYPE":"U","NORAD_CAT_ID":25851,"ELEMENT_SET_NO":999,"REV_AT_EPOCH":12515,"BSTAR":-0.0015062758,"MEAN_MOTION_DOT":-1.04e-6,"MEAN_MOTION_DDOT":0},{"OBJECT_NAME":"GLOBALSTAR M032","OBJECT_ID":"1999-037B","EPOCH":"2026-03-05T12:18:39.584160","MEAN_MOTION":11.19068436,"ECCENTRICITY":0.00123495,"INCLINATION":52.0001,"RA_OF_ASC_NODE":359.3499,"ARG_OF_PERICENTER":247.524,"MEAN_ANOMALY":112.4253,"EPHEMERIS_TYPE":0,"CLASSIFICATION_TYPE":"U","NORAD_CAT_ID":25852,"ELEMENT_SET_NO":999,"REV_AT_EPOCH":16404,"BSTAR":0.0019454755,"MEAN_MOTION_DOT":-6.0e-8,"MEAN_MOTION_DDOT":0},{"OBJECT_NAME":"GLOBALSTAR M051","OBJECT_ID":"1999-037C","EPOCH":"2026-03-05T13:01:31.088352","MEAN_MOTION":11.42200301,"ECCENTRICITY":7.109e-5,"INCLINATION":51.9783,"RA_OF_ASC_NODE":130.4036,"ARG_OF_PERICENTER":133.9292,"MEAN_ANOMALY":226.1577,"EPHEMERIS_TYPE":0,"CLASSIFICATION_TYPE":"U","NORAD_CAT_ID":25853,"ELEMENT_SET_NO":999,"REV_AT_EPOCH":16225,"BSTAR":0.00057761626,"MEAN_MOTION_DOT":-4.8e-7,"MEAN_MOTION_DDOT":0},{"OBJECT_NAME":"GLOBALSTAR M030","OBJECT_ID":"1999-037D","EPOCH":"2026-03-05T14:10:45.009408","MEAN_MOTION":11.55103991,"ECCENTRICITY":0.00042044,"INCLINATION":51.9869,"RA_OF_ASC_NODE":279.7704,"ARG_OF_PERICENTER":134.2253,"MEAN_ANOMALY":225.8909,"EPHEMERIS_TYPE":0,"CLASSIFICATION_TYPE":"U","NORAD_CAT_ID":25854,"ELEMENT_SET_NO":999,"REV_AT_EPOCH":18025,"BSTAR":-0.00028942763,"MEAN_MOTION_DOT":-8.9e-7,"MEAN_MOTION_DDOT":0},{"OBJECT_NAME":"GLOBALSTAR M048","OBJECT_ID":"1999-041A","EPOCH":"2026-03-05T10:33:50.312160","MEAN_MOTION":11.33862694,"ECCENTRICITY":0.00131982,"INCLINATION":51.9367,"RA_OF_ASC_NODE":75.7809,"ARG_OF_PERICENTER":276.461,"MEAN_ANOMALY":254.8132,"EPHEMERIS_TYPE":0,"CLASSIFICATION_TYPE":"U","NORAD_CAT_ID":25872,"ELEMENT_SET_NO":999,"REV_AT_EPOCH":15461,"BSTAR":0.00024313796,"MEAN_MOTION_DOT":-6.1e-7,"MEAN_MOTION_DDOT":0},{"OBJECT_NAME":"GLOBALSTAR M026","OBJECT_ID":"1999-041B","EPOCH":"2026-03-05T01:58:42.756384","MEAN_MOTION":11.06842262,"ECCENTRICITY":0.00021142,"INCLINATION":52.0026,"RA_OF_ASC_NODE":308.3513,"ARG_OF_PERICENTER":1.1675,"MEAN_ANOMALY":171.4275,"EPHEMERIS_TYPE":0,"CLASSIFICATION_TYPE":"U","NORAD_CAT_ID":25873,"ELEMENT_SET_NO":999,"REV_AT_EPOCH":17737,"BSTAR":0.0035617744,"MEAN_MOTION_DOT":3.3e-7,"MEAN_MOTION_DDOT":0},{"OBJECT_NAME":"GLOBALSTAR M043","OBJECT_ID":"1999-041C","EPOCH":"2026-03-05T16:07:56.343360","MEAN_MOTION":11.25697779,"ECCENTRICITY":0.00135165,"INCLINATION":51.9384,"RA_OF_ASC_NODE":193.2922,"ARG_OF_PERICENTER":41.3195,"MEAN_ANOMALY":331.3766,"EPHEMERIS_TYPE":0,"CLASSIFICATION_TYPE":"U","NORAD_CAT_ID":25874,"ELEMENT_SET_NO":999,"REV_AT_EPOCH":15232,"BSTAR":-0.00019968917,"MEAN_MOTION_DOT":-7.5e-7,"MEAN_MOTION_DDOT":0},{"OBJECT_NAME":"GLOBALSTAR M028","OBJECT_ID":"1999-041D","EPOCH":"2026-03-05T14:00:05.144832","MEAN_MOTION":12.50596952,"ECCENTRICITY":0.00629191,"INCLINATION":51.962,"RA_OF_ASC_NODE":133.6178,"ARG_OF_PERICENTER":278.9576,"MEAN_ANOMALY":80.4166,"EPHEMERIS_TYPE":0,"CLASSIFICATION_TYPE":"U","NORAD_CAT_ID":25875,"ELEMENT_SET_NO":999,"REV_AT_EPOCH":22288,"BSTAR":0.000351378,"MEAN_MOTION_DOT":-4.6e-7,"MEAN_MOTION_DDOT":0}]
